CCSDS_OMM_VERS = 2.0
CREATION_DATE  = 
ORIGINATOR     = 

OBJECT_NAME    = STARLINK-36659
OBJECT_ID      = 2026-033N
CENTER_NAME    = EARTH
REF_FRAME      = TEME
TIME_SYSTEM    = UTC
MEAN_ELEMENT_THEORY = SGP/SGP4

EPOCH          = 2026-03-12T20:13:40.622592
MEAN_MOTION    = 15.81357226
ECCENTRICITY   = .00018161
INCLINATION    = 42.9970
RA_OF_ASC_NODE = 252.0859
ARG_OF_PERICENTER = 307.9497
MEAN_ANOMALY   = 52.1210

EPHEMERIS_TYPE = 0
CLASSIFICATION_TYPE = U
NORAD_CAT_ID   = 67833
ELEMENT_SET_NO = 999
REV_AT_EPOCH   = 512
BSTAR          = -.25045565E-2
MEAN_MOTION_DOT = -.484356E-2
MEAN_MOTION_DDOT = 0

CCSDS_OMM_VERS = 2.0
CREATION_DATE  = 
ORIGINATOR     = 

OBJECT_NAME    = STARLINK-36655
OBJECT_ID      = 2026-033P
CENTER_NAME    = EARTH
REF_FRAME      = TEME
TIME_SYSTEM    = UTC
MEAN_ELEMENT_THEORY = SGP/SGP4

EPOCH          = 2026-03-15T22:00:01.999584
MEAN_MOTION    = 15.62496979
ECCENTRICITY   = .00016763
INCLINATION    = 42.9996
RA_OF_ASC_NODE = 233.6444
ARG_OF_PERICENTER = 282.6627
MEAN_ANOMALY   = 166.6569

EPHEMERIS_TYPE = 0
CLASSIFICATION_TYPE = U
NORAD_CAT_ID   = 67834
ELEMENT_SET_NO = 999
REV_AT_EPOCH   = 566
BSTAR          = -.22787494E-1
MEAN_MOTION_DOT = -.1851332E-1
MEAN_MOTION_DDOT = 0

CCSDS_OMM_VERS = 2.0
CREATION_DATE  = 
ORIGINATOR     = 

OBJECT_NAME    = STARLINK-36657
OBJECT_ID      = 2026-033Q
CENTER_NAME    = EARTH
REF_FRAME      = TEME
TIME_SYSTEM    = UTC
MEAN_ELEMENT_THEORY = SGP/SGP4

EPOCH          = 2026-03-15T22:00:01.999584
MEAN_MOTION    = 15.66601961
ECCENTRICITY   = .00014767
INCLINATION    = 42.9993
RA_OF_ASC_NODE = 233.4793
ARG_OF_PERICENTER = 285.5516
MEAN_ANOMALY   = 229.6332

EPHEMERIS_TYPE = 0
CLASSIFICATION_TYPE = U
NORAD_CAT_ID   = 67835
ELEMENT_SET_NO = 999
REV_AT_EPOCH   = 566
BSTAR          = -.19435537E-1
MEAN_MOTION_DOT = -.1860823E-1
MEAN_MOTION_DDOT = 0

CCSDS_OMM_VERS = 2.0
CREATION_DATE  = 
ORIGINATOR     = 

OBJECT_NAME    = STARLINK-36650
OBJECT_ID      = 2026-033R
CENTER_NAME    = EARTH
REF_FRAME      = TEME
TIME_SYSTEM    = UTC
MEAN_ELEMENT_THEORY = SGP/SGP4

EPOCH          = 2026-03-15T22:00:01.999584
MEAN_MOTION    = 15.58157095
ECCENTRICITY   = .00018388
INCLINATION    = 42.9997
RA_OF_ASC_NODE = 233.8235
ARG_OF_PERICENTER = 276.5219
MEAN_ANOMALY   = 100.4343

EPHEMERIS_TYPE = 0
CLASSIFICATION_TYPE = U
NORAD_CAT_ID   = 67836
ELEMENT_SET_NO = 999
REV_AT_EPOCH   = 566
BSTAR          = -.26868886E-1
MEAN_MOTION_DOT = -.1845484E-1
MEAN_MOTION_DDOT = 0

CCSDS_OMM_VERS = 2.0
CREATION_DATE  = 
ORIGINATOR     = 

OBJECT_NAME    = STARLINK-36649
OBJECT_ID      = 2026-033S
CENTER_NAME    = EARTH
REF_FRAME      = TEME
TIME_SYSTEM    = UTC
MEAN_ELEMENT_THEORY = SGP/SGP4

EPOCH          = 2026-03-15T22:00:01.999584
MEAN_MOTION    = 15.62071829
ECCENTRICITY   = .00016208
INCLINATION    = 42.9998
RA_OF_ASC_NODE = 233.6294
ARG_OF_PERICENTER = 285.3214
MEAN_ANOMALY   = 169.5964

EPHEMERIS_TYPE = 0
CLASSIFICATION_TYPE = U
NORAD_CAT_ID   = 67837
ELEMENT_SET_NO = 999
REV_AT_EPOCH   = 566
BSTAR          = -.23157188E-1
MEAN_MOTION_DOT = -.1850199E-1
MEAN_MOTION_DDOT = 0

CCSDS_OMM_VERS = 2.0
CREATION_DATE  = 
ORIGINATOR     = 

OBJECT_NAME    = STARLINK-36654
OBJECT_ID      = 2026-033T
CENTER_NAME    = EARTH
REF_FRAME      = TEME
TIME_SYSTEM    = UTC
MEAN_ELEMENT_THEORY = SGP/SGP4

EPOCH          = 2026-03-15T22:00:01.999584
MEAN_MOTION    = 15.60057609
ECCENTRICITY   = .00018404
INCLINATION    = 42.9993
RA_OF_ASC_NODE = 233.7085
ARG_OF_PERICENTER = 281.6126
MEAN_ANOMALY   = 141.3402

EPHEMERIS_TYPE = 0
CLASSIFICATION_TYPE = U
NORAD_CAT_ID   = 67838
ELEMENT_SET_NO = 999
REV_AT_EPOCH   = 566
BSTAR          = -.24935466E-1
MEAN_MOTION_DOT = -.1842759E-1
MEAN_MOTION_DDOT = 0

CCSDS_OMM_VERS = 2.0
CREATION_DATE  = 
ORIGINATOR     = 

OBJECT_NAME    = STARLINK-36652
OBJECT_ID      = 2026-033U
CENTER_NAME    = EARTH
REF_FRAME      = TEME
TIME_SYSTEM    = UTC
MEAN_ELEMENT_THEORY = SGP/SGP4

EPOCH          = 2026-03-15T22:00:01.999584
MEAN_MOTION    = 15.58353411
ECCENTRICITY   = .0001783
INCLINATION    = 42.9996
RA_OF_ASC_NODE = 233.7807
ARG_OF_PERICENTER = 278.5631
MEAN_ANOMALY   = 115.2075

EPHEMERIS_TYPE = 0
CLASSIFICATION_TYPE = U
NORAD_CAT_ID   = 67839
ELEMENT_SET_NO = 999
REV_AT_EPOCH   = 566
BSTAR          = -.26694093E-1
MEAN_MOTION_DOT = -.1847025E-1
MEAN_MOTION_DDOT = 0

CCSDS_OMM_VERS = 2.0
CREATION_DATE  = 
ORIGINATOR     = 

OBJECT_NAME    = STARLINK-36651
OBJECT_ID      = 2026-033V
CENTER_NAME    = EARTH
REF_FRAME      = TEME
TIME_SYSTEM    = UTC
MEAN_ELEMENT_THEORY = SGP/SGP4

EPOCH          = 2026-03-15T22:00:01.999584
MEAN_MOTION    = 15.59877474
ECCENTRICITY   = .00018252
INCLINATION    = 42.9991
RA_OF_ASC_NODE = 233.6951
ARG_OF_PERICENTER = 283.5371
MEAN_ANOMALY   = 144.5803

EPHEMERIS_TYPE = 0
CLASSIFICATION_TYPE = U
NORAD_CAT_ID   = 67840
ELEMENT_SET_NO = 999
REV_AT_EPOCH   = 566
BSTAR          = -.25063211E-1
MEAN_MOTION_DOT = -.1839714E-1
MEAN_MOTION_DDOT = 0

CCSDS_OMM_VERS = 2.0
CREATION_DATE  = 
ORIGINATOR     = 

OBJECT_NAME    = STARLINK-36656
OBJECT_ID      = 2026-033W
CENTER_NAME    = EARTH
REF_FRAME      = TEME
TIME_SYSTEM    = UTC
MEAN_ELEMENT_THEORY = SGP/SGP4

EPOCH          = 2026-03-15T22:00:01.999584
MEAN_MOTION    = 15.60983215
ECCENTRICITY   = .00016725
INCLINATION    = 42.9996
RA_OF_ASC_NODE = 233.6339
ARG_OF_PERICENTER = 286.2484
MEAN_ANOMALY   = 166.5551

EPHEMERIS_TYPE = 0
CLASSIFICATION_TYPE = U
NORAD_CAT_ID   = 67841
ELEMENT_SET_NO = 999
REV_AT_EPOCH   = 566
BSTAR          = -.24147344E-1
MEAN_MOTION_DOT = -.1848952E-1
MEAN_MOTION_DDOT = 0

CCSDS_OMM_VERS = 2.0
CREATION_DATE  = 
ORIGINATOR     = 

OBJECT_NAME    = STARLINK-36653
OBJECT_ID      = 2026-033X
CENTER_NAME    = EARTH
REF_FRAME      = TEME
TIME_SYSTEM    = UTC
MEAN_ELEMENT_THEORY = SGP/SGP4

EPOCH          = 2026-03-15T22:00:01.999584
MEAN_MOTION    = 15.59967714
ECCENTRICITY   = .00018134
INCLINATION    = 42.9998
RA_OF_ASC_NODE = 233.6701
ARG_OF_PERICENTER = 286.7350
MEAN_ANOMALY   = 151.6947

EPHEMERIS_TYPE = 0
CLASSIFICATION_TYPE = U
NORAD_CAT_ID   = 67842
ELEMENT_SET_NO = 999
REV_AT_EPOCH   = 566
BSTAR          = -.24882675E-1
MEAN_MOTION_DOT = -.1833607E-1
MEAN_MOTION_DDOT = 0

CCSDS_OMM_VERS = 2.0
CREATION_DATE  = 
ORIGINATOR     = 

OBJECT_NAME    = STARLINK-36589
OBJECT_ID      = 2026-033Y
CENTER_NAME    = EARTH
REF_FRAME      = TEME
TIME_SYSTEM    = UTC
MEAN_ELEMENT_THEORY = SGP/SGP4

EPOCH          = 2026-03-15T22:00:01.999584
MEAN_MOTION    = 15.61022887
ECCENTRICITY   = .00016543
INCLINATION    = 42.9998
RA_OF_ASC_NODE = 233.6106
ARG_OF_PERICENTER = 284.2468
MEAN_ANOMALY   = 177.8205

EPHEMERIS_TYPE = 0
CLASSIFICATION_TYPE = U
NORAD_CAT_ID   = 67843
ELEMENT_SET_NO = 999
REV_AT_EPOCH   = 566
BSTAR          = -.24144371E-1
MEAN_MOTION_DOT = -.1851278E-1
MEAN_MOTION_DDOT = 0

CCSDS_OMM_VERS = 2.0
CREATION_DATE  = 
ORIGINATOR     = 

OBJECT_NAME    = STARLINK-36598
OBJECT_ID      = 2026-033Z
CENTER_NAME    = EARTH
REF_FRAME      = TEME
TIME_SYSTEM    = UTC
MEAN_ELEMENT_THEORY = SGP/SGP4

EPOCH          = 2026-03-15T22:00:01.999584
MEAN_MOTION    = 15.57802286
ECCENTRICITY   = .00018611
INCLINATION    = 42.9990
RA_OF_ASC_NODE = 233.7554
ARG_OF_PERICENTER = 277.9636
MEAN_ANOMALY   = 125.8044

EPHEMERIS_TYPE = 0
CLASSIFICATION_TYPE = U
NORAD_CAT_ID   = 67844
ELEMENT_SET_NO = 999
REV_AT_EPOCH   = 566
BSTAR          = -.27257663E-1
MEAN_MOTION_DOT = -.1846902E-1
MEAN_MOTION_DDOT = 0

