STARLINK-36659          
1 67833U 26033N   26071.84283128 -.00484356  00000+0 -25046-2 0  9993
2 67833  42.9970 252.0859 0001816 307.9497  52.1210 15.81357226  5125
STARLINK-36655          
1 67834U 26033P   26074.91668981 -.01851332  00000+0 -22787-1 0  9990
2 67834  42.9996 233.6444 0001676 282.6627 166.6569 15.62496979  5662
STARLINK-36657          
1 67835U 26033Q   26074.91668981 -.01860823  00000+0 -19436-1 0  9993
2 67835  42.9993 233.4793 0001476 285.5516 229.6332 15.66601961  5663
STARLINK-36650          
1 67836U 26033R   26074.91668981 -.01845484  00000+0 -26869-1 0  9998
2 67836  42.9997 233.8235 0001838 276.5219 100.4343 15.58157095  5668
STARLINK-36649          
1 67837U 26033S   26074.91668981 -.01850199  00000+0 -23157-1 0  9995
2 67837  42.9998 233.6294 0001620 285.3214 169.5964 15.62071829  5665
STARLINK-36654          
1 67838U 26033T   26074.91668981 -.01842759  00000+0 -24935-1 0  9994
2 67838  42.9993 233.7085 0001840 281.6126 141.3402 15.60057609  5668
STARLINK-36652          
1 67839U 26033U   26074.91668981 -.01847025  00000+0 -26694-1 0  9990
2 67839  42.9996 233.7807 0001783 278.5631 115.2075 15.58353411  5669
STARLINK-36651          
1 67840U 26033V   26074.91668981 -.01839714  00000+0 -25063-1 0  9997
2 67840  42.9991 233.6951 0001825 283.5371 144.5803 15.59877474  5664
STARLINK-36656          
1 67841U 26033W   26074.91668981 -.01848952  00000+0 -24147-1 0  9994
2 67841  42.9996 233.6339 0001672 286.2484 166.5551 15.60983215  5662
STARLINK-36653          
1 67842U 26033X   26074.91668981 -.01833607  00000+0 -24883-1 0  9993
2 67842  42.9998 233.6701 0001813 286.7350 151.6947 15.59967714  5660
STARLINK-36589          
1 67843U 26033Y   26074.91668981 -.01851278  00000+0 -24144-1 0  9998
2 67843  42.9998 233.6106 0001654 284.2468 177.8205 15.61022887  5669
STARLINK-36598          
1 67844U 26033Z   26074.91668981 -.01846902  00000+0 -27258-1 0  9996
2 67844  42.9990 233.7554 0001861 277.9636 125.8044 15.57802286  5664
